{"type": "FeatureCollection", "features": [ {"type": "Feature", "properties": {"norad_id": 66432, "name": "STARLINK-35446", "group": "last-30-days", "lat": -28.290278839080806, "lon": 20.85886417720908, "alt_km": 446.4042882017793, "timestamp": "2025-12-11T07:02:22.476168+00:00", "meta": {"OBJECT_NAME": "STARLINK-35446", "OBJECT_ID": "2025-259L", "EPOCH": "2025-12-10T22:00:03.000096", "MEAN_MOTION": 15.40756572, "ECCENTRICITY": 0.00012662, "INCLINATION": 43.0002, "RA_OF_ASC_NODE": 58.3103, "ARG_OF_PERICENTER": 250.9233, "MEAN_ANOMALY": 133.7031, "EPHEMERIS_TYPE": 0, "CLASSIFICATION_TYPE": "U", "NORAD_CAT_ID": 66432, "ELEMENT_SET_NO": 999, "REV_AT_EPOCH": 598, "BSTAR": -0.0035068349, "MEAN_MOTION_DOT": -0.00144326, "MEAN_MOTION_DDOT": 0}, "tle": {"line1": "1 66432U 25259L   25344.91670139 -.00144326  00000+0 -35068-2 0  9993", "line2": "2 66432  43.0002  58.3103 0001266 250.9233 133.7031 15.40756572  5983"}}, "geometry": {"type": "Point", "coordinates": [20.85886417720908, -28.290278839080806]}}, {"type": "Feature", "properties": {"norad_id": 66433, "name": "STARLINK-35457", "group": "last-30-days", "lat": -20.93488739026171, "lon": 31.871793482210325, "alt_km": 445.9836293386297, "timestamp": "2025-12-11T07:02:22.476182+00:00", "meta": {"OBJECT_NAME": "STARLINK-35457", "OBJECT_ID": "2025-259M", "EPOCH": "2025-12-10T22:00:03.000096", "MEAN_MOTION": 15.40763141, "ECCENTRICITY": 0.00013511, "INCLINATION": 43.0001, "RA_OF_ASC_NODE": 58.2811, "ARG_OF_PERICENTER": 252.2747, "MEAN_ANOMALY": 144.7897, "EPHEMERIS_TYPE": 0, "CLASSIFICATION_TYPE": "U", "NORAD_CAT_ID": 66433, "ELEMENT_SET_NO": 999, "REV_AT_EPOCH": 598, "BSTAR": -0.0036949189, "MEAN_MOTION_DOT": -0.00151934, "MEAN_MOTION_DDOT": 0}, "tle": {"line1": "1 66433U 25259M   25344.91670139 -.00151934  00000+0 -36949-2 0  9996", "line2": "2 66433  43.0001  58.2811 0001351 252.2747 144.7897 15.40763141  5980"}}, "geometry": {"type": "Point", "coordinates": [31.871793482210325, -20.93488739026171]}}, {"type": "Feature", "properties": {"norad_id": 66434, "name": "STARLINK-35389", "group": "last-30-days", "lat": -12.937225227157253, "lon": 41.80819898368354, "alt_km": 445.17723673200726, "timestamp": "2025-12-11T07:02:22.476193+00:00", "meta": {"OBJECT_NAME": "STARLINK-35389", "OBJECT_ID": "2025-259N", "EPOCH": "2025-12-10T22:00:03.000096", "MEAN_MOTION": 15.40639512, "ECCENTRICITY": 0.00014876, "INCLINATION": 43.0002, "RA_OF_ASC_NODE": 58.25, "ARG_OF_PERICENTER": 264.7831, "MEAN_ANOMALY": 144.8029, "EPHEMERIS_TYPE": 0, "CLASSIFICATION_TYPE": "U", "NORAD_CAT_ID": 66434, "ELEMENT_SET_NO": 999, "REV_AT_EPOCH": 598, "BSTAR": 0.00047151562, "MEAN_MOTION_DOT": 0.00019403, "MEAN_MOTION_DDOT": 0}, "tle": {"line1": "1 66434U 25259N   25344.91670139  .00019403  00000+0  47152-3 0  9998", "line2": "2 66434  43.0002  58.2500 0001487 264.7831 144.8029 15.40639512  5981"}}, "geometry": {"type": "Point", "coordinates": [41.80819898368354, -12.937225227157253]}}, {"type": "Feature", "properties": {"norad_id": 66435, "name": "STARLINK-35502", "group": "last-30-days", "lat": -4.594339028903448, "lon": 51.10328307981399, "alt_km": 444.4828417789531, "timestamp": "2025-12-11T07:02:22.476204+00:00", "meta": {"OBJECT_NAME": "STARLINK-35502", "OBJECT_ID": "2025-259P", "EPOCH": "2025-12-10T22:00:03.000096", "MEAN_MOTION": 15.40754975, "ECCENTRICITY": 0.00011287, "INCLINATION": 43.0002, "RA_OF_ASC_NODE": 58.2211, "ARG_OF_PERICENTER": 266.3675, "MEAN_ANOMALY": 155.5747, "EPHEMERIS_TYPE": 0, "CLASSIFICATION_TYPE": "U", "NORAD_CAT_ID": 66435, "ELEMENT_SET_NO": 999, "REV_AT_EPOCH": 598, "BSTAR": -0.0034068334, "MEAN_MOTION_DOT": -0.00140283, "MEAN_MOTION_DDOT": 0}, "tle": {"line1": "1 66435U 25259P   25344.91670139 -.00140283  00000+0 -34068-2 0  9993", "line2": "2 66435  43.0002  58.2211 0001128 266.3675 155.5747 15.40754975  5984"}}, "geometry": {"type": "Point", "coordinates": [51.10328307981399, -4.594339028903448]}}, {"type": "Feature", "properties": {"norad_id": 66436, "name": "STARLINK-35501", "group": "last-30-days", "lat": 12.25662777006851, "lon": 69.46976685120849, "alt_km": 442.75708727966594, "timestamp": "2025-12-11T07:02:22.476215+00:00", "meta": {"OBJECT_NAME": "STARLINK-35501", "OBJECT_ID": "2025-259Q", "EPOCH": "2025-12-10T22:00:03.000096", "MEAN_MOTION": 15.40746917, "ECCENTRICITY": 0.00013876, "INCLINATION": 43.0003, "RA_OF_ASC_NODE": 58.1593, "ARG_OF_PERICENTER": 254.2508, "MEAN_ANOMALY": 192.5828, "EPHEMERIS_TYPE": 0, "CLASSIFICATION_TYPE": "U", "NORAD_CAT_ID": 66436, "ELEMENT_SET_NO": 999, "REV_AT_EPOCH": 598, "BSTAR": -0.0032494117, "MEAN_MOTION_DOT": -0.00133893, "MEAN_MOTION_DDOT": 0}, "tle": {"line1": "1 66436U 25259Q   25344.91670139 -.00133893  00000+0 -32494-2 0  9994", "line2": "2 66436  43.0003  58.1593 0001387 254.2508 192.5828 15.40746917  5984"}}, "geometry": {"type": "Point", "coordinates": [69.46976685120849, 12.25662777006851]}}, {"type": "Feature", "properties": {"norad_id": 66437, "name": "STARLINK-35474", "group": "last-30-days", "lat": 20.303755399766448, "lon": 79.35128959732837, "alt_km": 441.67312093866985, "timestamp": "2025-12-11T07:02:22.476226+00:00", "meta": {"OBJECT_NAME": "STARLINK-35474", "OBJECT_ID": "2025-259R", "EPOCH": "2025-12-10T22:00:03.000096", "MEAN_MOTION": 15.40751943, "ECCENTRICITY": 0.00017136, "INCLINATION": 43.0003, "RA_OF_ASC_NODE": 58.1289, "ARG_OF_PERICENTER": 262.8524, "MEAN_ANOMALY": 196.4162, "EPHEMERIS_TYPE": 0, "CLASSIFICATION_TYPE": "U", "NORAD_CAT_ID": 66437, "ELEMENT_SET_NO": 999, "REV_AT_EPOCH": 598, "BSTAR": -0.0032432967, "MEAN_MOTION_DOT": -0.00133672, "MEAN_MOTION_DDOT": 0}, "tle": {"line1": "1 66437U 25259R   25344.91670139 -.00133672  00000+0 -32433-2 0  9993", "line2": "2 66437  43.0003  58.1289 0001713 262.8524 196.4162 15.40751943  5982"}}, "geometry": {"type": "Point", "coordinates": [79.35128959732837, 20.303755399766448]}}, {"type": "Feature", "properties": {"norad_id": 66438, "name": "STARLINK-34681", "group": "last-30-days", "lat": 27.715508481139437, "lon": 90.24511459980414, "alt_km": 440.26681723044385, "timestamp": "2025-12-11T07:02:22.476236+00:00", "meta": {"OBJECT_NAME": "STARLINK-34681", "OBJECT_ID": "2025-259S", "EPOCH": "2025-12-10T22:00:03.000096", "MEAN_MOTION": 15.40668732, "ECCENTRICITY": 0.0001214, "INCLINATION": 43.0004, "RA_OF_ASC_NODE": 58.099, "ARG_OF_PERICENTER": 267.3115, "MEAN_ANOMALY": 204.4069, "EPHEMERIS_TYPE": 0, "CLASSIFICATION_TYPE": "U", "NORAD_CAT_ID": 66438, "ELEMENT_SET_NO": 999, "REV_AT_EPOCH": 587, "BSTAR": 0.00035850341, "MEAN_MOTION_DOT": 0.00014685, "MEAN_MOTION_DDOT": 0}, "tle": {"line1": "1 66438U 25259S   25344.91670139  .00014685  00000+0  35850-3 0  9991", "line2": "2 66438  43.0004  58.0990 0001214 267.3115 204.4069 15.40668732  5871"}}, "geometry": {"type": "Point", "coordinates": [90.24511459980414, 27.715508481139437]}}, {"type": "Feature", "properties": {"norad_id": 66439, "name": "STARLINK-35327", "group": "last-30-days", "lat": 3.870181009690504, "lon": 60.18371676894456, "alt_km": 443.7897396771514, "timestamp": "2025-12-11T07:02:22.476247+00:00", "meta": {"OBJECT_NAME": "STARLINK-35327", "OBJECT_ID": "2025-259T", "EPOCH": "2025-12-10T22:00:03.000096", "MEAN_MOTION": 15.40658145, "ECCENTRICITY": 0.00012941, "INCLINATION": 43, "RA_OF_ASC_NODE": 58.1912, "ARG_OF_PERICENTER": 244.97, "MEAN_ANOMALY": 189.4485, "EPHEMERIS_TYPE": 0, "CLASSIFICATION_TYPE": "U", "NORAD_CAT_ID": 66439, "ELEMENT_SET_NO": 999, "REV_AT_EPOCH": 598, "BSTAR": 0.00050403157, "MEAN_MOTION_DOT": 0.00020779, "MEAN_MOTION_DDOT": 0}, "tle": {"line1": "1 66439U 25259T   25344.91670139  .00020779  00000+0  50403-3 0  9994", "line2": "2 66439  43.0000  58.1912 0001294 244.9700 189.4485 15.40658145  5985"}}, "geometry": {"type": "Point", "coordinates": [60.18371676894456, 3.870181009690504]}}, {"type": "Feature", "properties": {"norad_id": 66440, "name": "STARLINK-35405", "group": "last-30-days", "lat": 34.17933216201527, "lon": 102.67818015505918, "alt_km": 439.71106585875805, "timestamp": "2025-12-11T07:02:22.476258+00:00", "meta": {"OBJECT_NAME": "STARLINK-35405", "OBJECT_ID": "2025-259U", "EPOCH": "2025-12-10T22:00:03.000096", "MEAN_MOTION": 15.40762212, "ECCENTRICITY": 0.00015547, "INCLINATION": 43.0004, "RA_OF_ASC_NODE": 58.0696, "ARG_OF_PERICENTER": 260.6529, "MEAN_ANOMALY": 223.4871, "EPHEMERIS_TYPE": 0, "CLASSIFICATION_TYPE": "U", "NORAD_CAT_ID": 66440, "ELEMENT_SET_NO": 999, "REV_AT_EPOCH": 598, "BSTAR": -0.0036096864, "MEAN_MOTION_DOT": -0.00148501, "MEAN_MOTION_DDOT": 0}, "tle": {"line1": "1 66440U 25259U   25344.91670139 -.00148501  00000+0 -36097-2 0  9994", "line2": "2 66440  43.0004  58.0696 0001554 260.6529 223.4871 15.40762212  5981"}}, "geometry": {"type": "Point", "coordinates": [102.67818015505918, 34.17933216201527]}}, {"type": "Feature", "properties": {"norad_id": 66441, "name": "STARLINK-35426", "group": "last-30-days", "lat": 39.179768158446656, "lon": 116.86283291354684, "alt_km": 438.81885856041663, "timestamp": "2025-12-11T07:02:22.476269+00:00", "meta": {"OBJECT_NAME": "STARLINK-35426", "OBJECT_ID": "2025-259V", "EPOCH": "2025-12-10T22:00:03.000096", "MEAN_MOTION": 15.40657031, "ECCENTRICITY": 0.00015044, "INCLINATION": 43.0006, "RA_OF_ASC_NODE": 58.0389, "ARG_OF_PERICENTER": 268.0229, "MEAN_ANOMALY": 228.5862, "EPHEMERIS_TYPE": 0, "CLASSIFICATION_TYPE": "U", "NORAD_CAT_ID": 66441, "ELEMENT_SET_NO": 999, "REV_AT_EPOCH": 598, "BSTAR": 0.00062748415, "MEAN_MOTION_DOT": 0.0002596, "MEAN_MOTION_DDOT": 0}, "tle": {"line1": "1 66441U 25259V   25344.91670139  .00025960  00000+0  62748-3 0  9999", "line2": "2 66441  43.0006  58.0389 0001504 268.0229 228.5862 15.40657031  5985"}}, "geometry": {"type": "Point", "coordinates": [116.86283291354684, 39.179768158446656]}}]}